{"fetched_at":"2026-03-30T06:02:59Z","count":15439,"tles":[{"name":"STARLINK-11720 [DTC]","line1":"1 64131U 25111J   26087.77912119  .00161665  00000+0  12366-2 0  9999","line2":"2 64131  43.0001 218.5806 0001341 254.1586 105.9134 15.70887368 49598","category":"Starlink"}]}